satname,norad_id,inclination_deg,eccentricity,mean_motion_rev_per_day,perigee_km,apogee_km,l1,l2
STARLINK-1404,45686,53.1595,0.0002428,15.39071382,447.19644493226224,450.51163178048864,1 45686U 20035AF  26107.31130185  .00030204  00000+0  77585-3 0  9990,2 45686  53.1595 229.0457 0002428 356.8044   3.2945 15.39071382324904
STARLINK-1413,45689,53.1575,0.0001543,15.30865743,472.1708356121235,474.2851668515041,1 45689U 20035AJ  26107.82337473  .00031550  00000+0  10510-2 0  9997,2 45689  53.1575 227.7802 0001543  39.7253 320.3861 15.30865743324880
STARLINK-1417,45693,53.0496,0.0003994,15.14503939,519.7288614215704,525.241078251076,1 45693U 20035AN  26107.68916688  .00016106  00000+0  87883-3 0  9995,2 45693  53.0496 237.2719 0003994 355.8722   4.2237 15.14503939324809
STARLINK-1420,45695,53.0492,0.0006541,15.6168325,378.37223728375375,387.2168879539722,1 45695U 20035AQ  26107.43179782  .00063241  00000+0  71982-3 0  9991,2 45695  53.0492 194.3690 0006541 328.2492  31.8126 15.61683250325392
STARLINK-1422,45696,53.1583,0.0001594,15.31037574,471.6233387312295,473.8073904650646,1 45696U 20035AR  26107.76432379  .00016452  00000+0  55194-3 0  9991,2 45696  53.1583 228.0446 0001594  30.0416 330.0676 15.31037574324950
STARLINK-1351,45697,53.048,0.0006812,15.59232838,385.2657649778557,394.48650607369746,1 45697U 20035AS  26107.64029968  .00034195  00000+0  43189-3 0  9990,2 45697  53.0480 193.0057 0006812 329.1551  30.9060 15.59232838325432
STARLINK-1400,45700,53.0456,0.0005436,15.57824887,390.2721344115607,397.6347511409476,1 45700U 20035AV  26107.91406034  .00068718  00000+0  90484-3 0  9996,2 45700  53.0456 193.5470 0005436 289.5866  70.4558 15.57824887325444
STARLINK-1403,45701,53.1574,0.0001183,15.29981038,475.05809955170844,476.67975735438085,1 45701U 20035AW  26107.61133061  .00020377  00000+0  70293-3 0  9996,2 45701  53.1574 215.9216 0001183  36.2965 323.8116 15.29981038325105
STARLINK-1407,45703,53.0292,0.0002992,15.66543901,366.7834855890833,370.8208539882844,1 45703U 20035AY  26107.74417819  .00035118  00000+0  33376-3 0  9998,2 45703  53.0292 124.3315 0002992 286.6231  73.4455 15.66543901326404
STARLINK-1411,45706,53.0387,0.000596,15.71165939,351.55034238522603,359.5769135337541,1 45706U 20035BB  26106.84544372  .00089840  00000+0  69432-3 0  9999,2 45706  53.0387 153.7305 0005960   1.9477 358.1562 15.71165939325908
STARLINK-1423,45710,53.0441,0.0007303,15.62272378,376.1585047955132,386.03103872134307,1 45710U 20035BF  26108.00004630  .01164949  00000+0  11680-1 0  9997,2 45710  53.0441 191.4612 0007303 300.0215 359.3091 15.62272378  5967
STARLINK-1433,45711,53.0448,0.000673,15.62883655,374.7844273141309,383.8799808628337,1 45711U 20035BG  26107.72543350  .00062905  00000+0  68341-3 0  9999,2 45711  53.0448 191.2319 0006730 303.7119  56.3253 15.62883655325452
STARLINK-1434,45712,53.0511,0.0002995,15.30435417,472.45987834741754,476.56461524624774,1 45712U 20035BH  26107.53633865  .00026404  00000+0  89380-3 0  9990,2 45712  53.0511 199.5865 0002995 289.6294  70.4382 15.30435417325337
STARLINK-1465,45731,53.0504,0.0005349,15.5625912,394.8701704273526,402.1198113311948,1 45731U 20038B   26107.51146886  .00049960  00000+0  70084-3 0  9997,2 45731  53.0504  35.9895 0005349  79.3555 280.8057 15.56259120322411
STARLINK-1471,45735,53.0457,0.000186,15.51035294,412.4388010321645,414.9653651710787,1 45735U 20038F   26107.91372322  .00017778  00000+0  30771-3 0  9992,2 45735  53.0457 313.7865 0001860  60.4523 299.6670 15.51035294323617
STARLINK-1480,45741,53.053,0.0002947,15.58277568,390.6464986000965,394.6371956525918,1 45741U 20038M   26107.96885804  .00035109  00000+0  45980-3 0  9994,2 45741  53.0530  27.7264 0002947 147.2206 212.8989 15.58277568322584
STARLINK-1500,45744,53.0382,0.0003512,15.36879157,452.9446514718911,457.74448892679993,1 45744U 20038Q   26107.91594440  .00017514  00000+0  48816-3 0  9996,2 45744  53.0382   8.4368 0003512  62.3013 297.8345 15.36879157322841
STARLINK-1504,45746,53.0215,7.08e-05,15.55835407,399.24541835985565,400.2051636602637,1 45746U 20038S   26107.83923019  .00021715  00000+0  31455-3 0  9996,2 45746  53.0215 312.9160 0000708  66.2704 293.8381 15.55835407323607
STARLINK-1506,45747,53.0827,0.0004114,15.27302079,481.0583833101473,486.7044520642203,1 45747U 20038T   26107.48054586  .00015779  00000+0  59378-3 0  9999,2 45747  53.0827  22.7949 0004114  38.8104 321.3190 15.27302079322610
STARLINK-1464,45751,53.0503,0.0003272,15.48867356,417.8139000331239,422.26262592521743,1 45751U 20038X   26107.73582536  .00040507  00000+0  74385-3 0  9995,2 45751  53.0503  18.3092 0003272  92.3190 267.8192 15.48867356322691
STARLINK-1477,45754,53.0509,0.0003463,15.16375283,514.4187555412082,519.1941933916232,1 45754U 20038AA  26107.21504550  .00013634  00000+0  70841-3 0  9995,2 45754  53.0509  37.5747 0003463  93.2674 266.8716 15.16375283322373
STARLINK-1478,45755,53.0488,0.0002965,15.61823437,380.3854927253933,384.3944852298573,1 45755U 20038AB  26107.74937902  .00064938  00000+0  73536-3 0  9992,2 45755  53.0488   8.0359 0002965  81.4590 278.6759 15.61823437322821
STARLINK-1493,45759,53.0509,0.0004752,15.56962326,393.23509602880677,399.6736676781202,1 45759U 20038AF  26107.94764600  .00055444  00000+0  75660-3 0  9993,2 45759  53.0509  15.0943 0004752 145.4658 214.6662 15.56962326322747
STARLINK-1494,45760,53.0457,0.0004245,15.83405016,317.9758861341061,323.6633002817407,1 45760U 20038AG  26107.94496436  .00130252  00000+0  58052-3 0  9991,2 45760  53.0457 315.0938 0004245 176.8754 183.2296 15.83405016323596
STARLINK-1502,45764,53.05,0.0006494,15.53330369,402.60411272250894,411.41666214931047,1 45764U 20038AL  26107.75432159  .00030722  00000+0  48355-3 0  9992,2 45764  53.0500  18.5199 0006494 131.5082 228.6486 15.53330369322693
STARLINK-1470,45772,53.0481,0.000329,15.31460424,469.20073639255224,473.7077674363127,1 45772U 20038AU  26107.93965818  .00027951  00000+0  91573-3 0  9994,2 45772  53.0481 351.6486 0003290 144.2127 215.9094 15.31460424323082
STARLINK-1482,45773,53.1593,0.0003401,15.33557709,462.88043074592406,467.53527391447915,1 45773U 20038AV  26107.89555896  .00028605  00000+0  87744-3 0  9993,2 45773  53.1593   8.4831 0003401 135.8924 224.2350 15.33557709322851
STARLINK-1496,45780,53.0504,0.0001341,15.55017314,401.1930700857456,403.01153026605243,1 45780U 20038BC  26107.93273226  .00054137  00000+0  79430-3 0  9992,2 45780  53.0504 349.0505 0001341 245.0151 115.0720 15.55017314323103
STARLINK-1513,45786,53.1593,0.0001443,15.31700968,469.7488171355126,471.72540220356404,1 45786U 20038BJ  26108.00004630 -.00005273  00000+0 -15827-3 0  9997,2 45786  53.1593   8.5320 0001443  86.9044 233.6296 15.31700968  5904
STARLINK-1522,46027,53.0644,0.0001792,15.10948123,532.0686627163705,534.5457243153269,1 46027U 20055A   26107.93086493  .00014873  00000+0  89731-3 0  9992,2 46027  53.0644 309.3696 0001792 160.0219 200.0843 15.10948123314815
STARLINK-1523,46028,53.1604,0.0001339,15.30199846,474.29786533193874,476.13319313926877,1 46028U 20055B   26107.84175814  .00000201  00000+0  18910-4 0  9991,2 46028  53.1604 304.8441 0001339  86.2872 273.8282 15.30199846314897
STARLINK-1526,46029,53.1588,0.0001014,15.30196165,474.53158900104063,475.92145112290837,1 46029U 20055C   26107.83543857  .00001630  00000+0  67136-4 0  9998,2 46029  53.1588 304.8844 0001014  91.1275 268.9842 15.30196165314885
STARLINK-1555,46032,53.1604,0.0001195,15.30191246,474.42222871422746,476.0601861057985,1 46032U 20055F   26107.88494803  .00001552  00000+0  64522-4 0  9992,2 46032  53.1604 304.6387 0001195  81.1737 278.9399 15.30191246314894
STARLINK-1556,46033,53.159,0.0001341,15.30187989,474.3318930131836,476.1699716566354,1 46033U 20055G   26107.80278021  .00000801  00000+0  39188-4 0  9993,2 46033  53.1590 305.0350 0001341  88.5531 271.5623 15.30187989314854
STARLINK-1557,46034,53.1559,0.0001765,15.29352896,476.5354734086086,478.9555999440563,1 46034U 20055H   26107.73327142  .00014422  00000+0  51119-3 0  9996,2 46034  53.1559 305.2787 0001765  99.5974 260.5226 15.29352896314844
STARLINK-1558,46035,53.1601,0.0001526,15.30192529,474.191551639562,476.28320149929095,1 46035U 20055J   26107.81331416 -.00000309  00000+0  17028-5 0  9998,2 46035  53.1601 304.9821 0001526  89.0090 271.1086 15.30192529314889
STARLINK-1560,46036,53.1562,0.0001366,15.29345541,476.83100118857783,478.7040343028266,1 46036U 20055K   26107.73003108 -.00001085  00000+0 -25285-4 0  9990,2 46036  53.1562 305.3333 0001366  94.3841 265.7315 15.29345541314879
STARLINK-1567,46038,53.0845,9.05e-05,15.88813512,305.0034190776605,306.2131769766038,1 46038U 20055M   26108.00004630  .00279249  00000+0  93859-3 0  9992,2 46038  53.0845 296.2516 0000905 304.2290 214.8214 15.88813512  1974
STARLINK-1569,46039,53.1579,0.0001187,15.30191594,474.42667246514884,476.0536642049128,1 46039U 20055N   26107.81647340  .00000414  00000+0  26118-4 0  9993,2 46039  53.1579 304.9623 0001187  85.2087 274.9049 15.30191594314874
STARLINK-1582,46043,53.1595,0.0001132,15.31674446,470.0408699299869,471.59147292799753,1 46043U 20055S   26108.00004630  .00058092  00000+0  18707-2 0  9997,2 46043  53.1595 304.0590 0001132  85.3615 195.0482 15.31674446  5907
STARLINK-1591,46045,53.1605,0.0001023,15.30187049,474.552637171023,475.95484091623166,1 46045U 20055U   26107.71850203  .00001516  00000+0  63331-4 0  9995,2 46045  53.1605 305.4199 0001023  96.4820 263.6297 15.30187049314840
STARLINK-1524,46047,53.1603,0.0001196,15.30194437,474.41201669082966,476.05134247898695,1 46047U 20055W   26107.77798080  .00000283  00000+0  21686-4 0  9994,2 46047  53.1603 292.2796 0001196  84.8857 275.2281 15.30194437315053
STARLINK-1527,46048,53.162,9.92e-05,15.31177723,471.6177552211748,472.97688138992544,1 46048U 20055X   26107.84842126  .00088599  00000+0  28795-2 0  9996,2 46048  53.1620 292.0363 0000992  19.3834 340.7204 15.31177723315044
